{
  "type": "FeatureCollection",
  "features": [
    {
      "type": "Feature",
      "properties": {
        "norad_id": 66870,
        "name": "STARLINK-36114",
        "group": "last-30-days",
        "lat": 41.47044544010265,
        "lon": -159.0148564329157,
        "alt_km": 335.6768211090375,
        "timestamp": "2025-12-17T13:48:36.280965+00:00",
        "meta_object_name": "STARLINK-36114",
        "meta_object_id": "2025-281Y",
        "meta_epoch": "2025-12-17T06:00:00.999648",
        "meta_mean_motion": 15.7737328,
        "meta_eccentricity": 0.0001764,
        "meta_inclination": 43.0005,
        "meta_ra_of_asc_node": 94.4865,
        "meta_arg_of_pericenter": 266.0907,
        "meta_mean_anomaly": 148.1822,
        "meta_ephemeris_type": 0,
        "meta_classification_type": "U",
        "meta_norad_cat_id": 66870,
        "meta_element_set_no": 999,
        "meta_rev_at_epoch": 202,
        "meta_bstar": -0.010300096,
        "meta_mean_motion_dot": -0.01538781,
        "meta_mean_motion_ddot": 0,
        "tle_line1": "1 66870U 25281Y   25351.25001157 -.01538781  00000+0 -10300-1 0  9991",
        "tle_line2": "2 66870  43.0005  94.4865 0001764 266.0907 148.1822 15.77373280  2028"
      },
      "geometry": {
        "type": "Point",
        "coordinates": [
          -159.0148564329157,
          41.47044544010265
        ]
      }
    },
    {
      "type": "Feature",
      "properties": {
        "norad_id": 66871,
        "name": "STARLINK-36095",
        "group": "last-30-days",
        "lat": 40.97084731908835,
        "lon": -156.23065968409696,
        "alt_km": 336.252442486355,
        "timestamp": "2025-12-17T13:48:36.280974+00:00",
        "meta_object_name": "STARLINK-36095",
        "meta_object_id": "2025-281Z",
        "meta_epoch": "2025-12-17T06:00:00.999648",
        "meta_mean_motion": 15.77159822,
        "meta_eccentricity": 0.00016882,
        "meta_inclination": 43.0008,
        "meta_ra_of_asc_node": 94.4805,
        "meta_arg_of_pericenter": 270.5578,
        "meta_mean_anomaly": 146.1034,
        "meta_ephemeris_type": 0,
        "meta_classification_type": "U",
        "meta_norad_cat_id": 66871,
        "meta_element_set_no": 999,
        "meta_rev_at_epoch": 215,
        "meta_bstar": -0.010155931,
        "meta_mean_motion_dot": -0.01507049,
        "meta_mean_motion_ddot": 0,
        "tle_line1": "1 66871U 25281Z   25351.25001157 -.01507049  00000+0 -10156-1 0  9994",
        "tle_line2": "2 66871  43.0008  94.4805 0001688 270.5578 146.1034 15.77159822  2156"
      },
      "geometry": {
        "type": "Point",
        "coordinates": [
          -156.23065968409696,
          40.97084731908835
        ]
      }
    },
    {
      "type": "Feature",
      "properties": {
        "norad_id": 66872,
        "name": "STARLINK-36082",
        "group": "last-30-days",
        "lat": 40.44830700304878,
        "lon": -153.68993215205805,
        "alt_km": 336.4537474066601,
        "timestamp": "2025-12-17T13:48:36.280986+00:00",
        "meta_object_name": "STARLINK-36082",
        "meta_object_id": "2025-281AA",
        "meta_epoch": "2025-12-17T06:00:00.999648",
        "meta_mean_motion": 15.7708135,
        "meta_eccentricity": 0.00015709,
        "meta_inclination": 43.0008,
        "meta_ra_of_asc_node": 94.475,
        "meta_arg_of_pericenter": 267.9299,
        "meta_mean_anomaly": 150.8224,
        "meta_ephemeris_type": 0,
        "meta_classification_type": "U",
        "meta_norad_cat_id": 66872,
        "meta_element_set_no": 999,
        "meta_rev_at_epoch": 202,
        "meta_bstar": -0.010205617,
        "meta_mean_motion_dot": -0.01508743,
        "meta_mean_motion_ddot": 0,
        "tle_line1": "1 66872U 25281AA  25351.25001157 -.01508743  00000+0 -10206-1 0  9993",
        "tle_line2": "2 66872  43.0008  94.4750 0001570 267.9299 150.8224 15.77081350  2025"
      },
      "geometry": {
        "type": "Point",
        "coordinates": [
          -153.68993215205805,
          40.44830700304878
        ]
      }
    },
    {
      "type": "Feature",
      "properties": {
        "norad_id": 66873,
        "name": "STARLINK-36128",
        "group": "last-30-days",
        "lat": 38.53449779467211,
        "lon": -146.24258468287405,
        "alt_km": 338.00918245295907,
        "timestamp": "2025-12-17T13:48:36.280995+00:00",
        "meta_object_name": "STARLINK-36128",
        "meta_object_id": "2025-281AB",
        "meta_epoch": "2025-12-17T06:00:00.999648",
        "meta_mean_motion": 15.76708895,
        "meta_eccentricity": 0.00016283,
        "meta_inclination": 43.0004,
        "meta_ra_of_asc_node": 94.4583,
        "meta_arg_of_pericenter": 269.5363,
        "meta_mean_anomaly": 155.7526,
        "meta_ephemeris_type": 0,
        "meta_classification_type": "U",
        "meta_norad_cat_id": 66873,
        "meta_element_set_no": 999,
        "meta_rev_at_epoch": 215,
        "meta_bstar": -0.011011169,
        "meta_mean_motion_dot": -0.01620154,
        "meta_mean_motion_ddot": 0,
        "tle_line1": "1 66873U 25281AB  25351.25001157 -.01620154  00000+0 -11011-1 0  9990",
        "tle_line2": "2 66873  43.0004  94.4583 0001628 269.5363 155.7526 15.76708895  2152"
      },
      "geometry": {
        "type": "Point",
        "coordinates": [
          -146.24258468287405,
          38.53449779467211
        ]
      }
    },
    {
      "type": "Feature",
      "properties": {
        "norad_id": 66874,
        "name": "STARLINK-36129",
        "group": "last-30-days",
        "lat": 39.83844443481319,
        "lon": -151.05903258941217,
        "alt_km": 337.1600423281925,
        "timestamp": "2025-12-17T13:48:36.281007+00:00",
        "meta_object_name": "STARLINK-36129",
        "meta_object_id": "2025-281AC",
        "meta_epoch": "2025-12-17T06:00:00.999648",
        "meta_mean_motion": 15.76923405,
        "meta_eccentricity": 0.00018937,
        "meta_inclination": 43.0005,
        "meta_ra_of_asc_node": 94.4694,
        "meta_arg_of_pericenter": 268.7887,
        "meta_mean_anomaly": 152.245,
        "meta_ephemeris_type": 0,
        "meta_classification_type": "U",
        "meta_norad_cat_id": 66874,
        "meta_element_set_no": 999,
        "meta_rev_at_epoch": 215,
        "meta_bstar": -0.010144596,
        "meta_mean_motion_dot": -0.01491695,
        "meta_mean_motion_ddot": 0,
        "tle_line1": "1 66874U 25281AC  25351.25001157 -.01491695  00000+0 -10145-1 0  9994",
        "tle_line2": "2 66874  43.0005  94.4694 0001893 268.7887 152.2450 15.76923405  2157"
      },
      "geometry": {
        "type": "Point",
        "coordinates": [
          -151.05903258941217,
          39.83844443481319
        ]
      }
    },
    {
      "type": "Feature",
      "properties": {
        "norad_id": 66875,
        "name": "STARLINK-36053",
        "group": "last-30-days",
        "lat": 37.79856893839457,
        "lon": -143.8667766214025,
        "alt_km": 338.36969338779363,
        "timestamp": "2025-12-17T13:48:36.281020+00:00",
        "meta_object_name": "STARLINK-36053",
        "meta_object_id": "2025-281AD",
        "meta_epoch": "2025-12-17T06:00:00.999648",
        "meta_mean_motion": 15.76664456,
        "meta_eccentricity": 0.00012141,
        "meta_inclination": 43.0007,
        "meta_ra_of_asc_node": 94.4526,
        "meta_arg_of_pericenter": 279.8148,
        "meta_mean_anomaly": 147.5975,
        "meta_ephemeris_type": 0,
        "meta_classification_type": "U",
        "meta_norad_cat_id": 66875,
        "meta_element_set_no": 999,
        "meta_rev_at_epoch": 215,
        "meta_bstar": -0.012130852,
        "meta_mean_motion_dot": -0.01761578,
        "meta_mean_motion_ddot": 0,
        "tle_line1": "1 66875U 25281AD  25351.25001157 -.01761578  00000+0 -12131-1 0  9992",
        "tle_line2": "2 66875  43.0007  94.4526 0001214 279.8148 147.5975 15.76664456  2151"
      },
      "geometry": {
        "type": "Point",
        "coordinates": [
          -143.8667766214025,
          37.79856893839457
        ]
      }
    },
    {
      "type": "Feature",
      "properties": {
        "norad_id": 66876,
        "name": "STARLINK-35702",
        "group": "last-30-days",
        "lat": 39.199628173483404,
        "lon": -148.5839923946505,
        "alt_km": 337.9276603096814,
        "timestamp": "2025-12-17T13:48:36.281030+00:00",
        "meta_object_name": "STARLINK-35702",
        "meta_object_id": "2025-281AE",
        "meta_epoch": "2025-12-17T06:00:00.999648",
        "meta_mean_motion": 15.76760828,
        "meta_eccentricity": 0.00018752,
        "meta_inclination": 43.0007,
        "meta_ra_of_asc_node": 94.4637,
        "meta_arg_of_pericenter": 267.8253,
        "meta_mean_anomaly": 155.4645,
        "meta_ephemeris_type": 0,
        "meta_classification_type": "U",
        "meta_norad_cat_id": 66876,
        "meta_element_set_no": 999,
        "meta_rev_at_epoch": 215,
        "meta_bstar": -0.011027549,
        "meta_mean_motion_dot": -0.0162584,
        "meta_mean_motion_ddot": 0,
        "tle_line1": "1 66876U 25281AE  25351.25001157 -.01625840  00000+0 -11028-1 0  9998",
        "tle_line2": "2 66876  43.0007  94.4637 0001875 267.8253 155.4645 15.76760828  2154"
      },
      "geometry": {
        "type": "Point",
        "coordinates": [
          -148.5839923946505,
          39.199628173483404
        ]
      }
    }
  ]
}